[
  {
    "OBJECT_NAME": "STARLINK-32603",
    "OBJECT_ID": "24217R",
    "EPOCH": "2025-11-11T05:39:00.237888",
    "MEAN_MOTION": 15.30241099,
    "ECCENTRICITY": 0.0001846,
    "INCLINATION": 53.16,
    "RA_OF_ASC_NODE": 24.2341,
    "ARG_OF_PERICENTER": 100.5988,
    "MEAN_ANOMALY": 259.5221,
    "EPHEMERIS_TYPE": 0,
    "CLASSIFICATION_TYPE": "U",
    "NORAD_CAT_ID": 62072,
    "ELEMENT_SET_NO": 999,
    "REV_AT_EPOCH": 5533,
    "BSTAR": 0.0014149,
    "MEAN_MOTION_DOT": 0.00041835,
    "MEAN_MOTION_DDOT": 0.0,
    "TLE_LINE1": "1 62072U 24217R   25315.23541942  .00041835  00000+0  14149-2 0  9990",
    "TLE_LINE2": "2 62072  53.1600  24.2341 0001846 100.5988 259.5221 15.30241099 55336",
    "COMMENT": "Grouped by shell and plane from TLE"
  },
  {
    "OBJECT_NAME": "STARLINK-32444",
    "OBJECT_ID": "24217S",
    "EPOCH": "2025-11-11T05:29:53.469312",
    "MEAN_MOTION": 15.30230734,
    "ECCENTRICITY": 0.0001307,
    "INCLINATION": 53.1589,
    "RA_OF_ASC_NODE": 24.209,
    "ARG_OF_PERICENTER": 91.4715,
    "MEAN_ANOMALY": 268.6435,
    "EPHEMERIS_TYPE": 0,
    "CLASSIFICATION_TYPE": "U",
    "NORAD_CAT_ID": 62073,
    "ELEMENT_SET_NO": 999,
    "REV_AT_EPOCH": 5528,
    "BSTAR": 0.001237,
    "MEAN_MOTION_DOT": 0.00036492,
    "MEAN_MOTION_DDOT": 0.0,
    "TLE_LINE1": "1 62073U 24217S   25315.22909108  .00036492  00000+0  12370-2 0  9999",
    "TLE_LINE2": "2 62073  53.1589  24.2090 0001307  91.4715 268.6435 15.30230734 55288",
    "COMMENT": "Grouped by shell and plane from TLE"
  },
  {
    "OBJECT_NAME": "STARLINK-32619",
    "OBJECT_ID": "24217T",
    "EPOCH": "2025-11-11T04:29:17.498112",
    "MEAN_MOTION": 15.30228795,
    "ECCENTRICITY": 0.0001535,
    "INCLINATION": 53.1616,
    "RA_OF_ASC_NODE": 24.6428,
    "ARG_OF_PERICENTER": 77.235,
    "MEAN_ANOMALY": 282.8823,
    "EPHEMERIS_TYPE": 0,
    "CLASSIFICATION_TYPE": "U",
    "NORAD_CAT_ID": 62074,
    "ELEMENT_SET_NO": 999,
    "REV_AT_EPOCH": 5527,
    "BSTAR": 0.0015873,
    "MEAN_MOTION_DOT": 0.00046992,
    "MEAN_MOTION_DDOT": 0.0,
    "TLE_LINE1": "1 62074U 24217T   25315.18700808  .00046992  00000+0  15873-2 0  9998",
    "TLE_LINE2": "2 62074  53.1616  24.6428 0001535  77.2350 282.8823 15.30228795 55271",
    "COMMENT": "Grouped by shell and plane from TLE"
  },
  {
    "OBJECT_NAME": "STARLINK-32594",
    "OBJECT_ID": "24239B",
    "EPOCH": "2025-11-11T05:06:20.539008",
    "MEAN_MOTION": 15.30251807,
    "ECCENTRICITY": 0.0001104,
    "INCLINATION": 53.1588,
    "RA_OF_ASC_NODE": 22.0194,
    "ARG_OF_PERICENTER": 95.9027,
    "MEAN_ANOMALY": 264.2099,
    "EPHEMERIS_TYPE": 0,
    "CLASSIFICATION_TYPE": "U",
    "NORAD_CAT_ID": 62302,
    "ELEMENT_SET_NO": 999,
    "REV_AT_EPOCH": 5127,
    "BSTAR": 0.0024482,
    "MEAN_MOTION_DOT": 0.00072981,
    "MEAN_MOTION_DDOT": 0.0,
    "TLE_LINE1": "1 62302U 24239B   25315.21273772  .00072981  00000+0  24482-2 0  9998",
    "TLE_LINE2": "2 62302  53.1588  22.0194 0001104  95.9027 264.2099 15.30251807 51270",
    "COMMENT": "Grouped by shell and plane from TLE"
  },
  {
    "OBJECT_NAME": "STARLINK-32649",
    "OBJECT_ID": "24239E",
    "EPOCH": "2025-11-11T04:07:52.440672",
    "MEAN_MOTION": 15.30241734,
    "ECCENTRICITY": 0.0001785,
    "INCLINATION": 53.1597,
    "RA_OF_ASC_NODE": 24.0525,
    "ARG_OF_PERICENTER": 94.8498,
    "MEAN_ANOMALY": 265.2707,
    "EPHEMERIS_TYPE": 0,
    "CLASSIFICATION_TYPE": "U",
    "NORAD_CAT_ID": 62305,
    "ELEMENT_SET_NO": 999,
    "REV_AT_EPOCH": 5124,
    "BSTAR": 0.0014008000000000002,
    "MEAN_MOTION_DOT": 0.00041413,
    "MEAN_MOTION_DDOT": 0.0,
    "TLE_LINE1": "1 62305U 24239E   25315.17213473  .00041413  00000+0  14008-2 0  9997",
    "TLE_LINE2": "2 62305  53.1597  24.0525 0001785  94.8498 265.2707 15.30241734 51240",
    "COMMENT": "Grouped by shell and plane from TLE"
  },
  {
    "OBJECT_NAME": "STARLINK-32633",
    "OBJECT_ID": "24239F",
    "EPOCH": "2025-11-11T04:50:25.417248",
    "MEAN_MOTION": 15.30245858,
    "ECCENTRICITY": 0.0001441,
    "INCLINATION": 53.1596,
    "RA_OF_ASC_NODE": 24.2298,
    "ARG_OF_PERICENTER": 94.7151,
    "MEAN_ANOMALY": 265.4015,
    "EPHEMERIS_TYPE": 0,
    "CLASSIFICATION_TYPE": "U",
    "NORAD_CAT_ID": 62306,
    "ELEMENT_SET_NO": 999,
    "REV_AT_EPOCH": 5124,
    "BSTAR": 0.0018774,
    "MEAN_MOTION_DOT": 0.0005574,
    "MEAN_MOTION_DDOT": 0.0,
    "TLE_LINE1": "1 62306U 24239F   25315.20168307  .00055740  00000+0  18774-2 0  9999",
    "TLE_LINE2": "2 62306  53.1596  24.2298 0001441  94.7151 265.4015 15.30245858 51248",
    "COMMENT": "Grouped by shell and plane from TLE"
  },
  {
    "OBJECT_NAME": "STARLINK-32706",
    "OBJECT_ID": "24239H",
    "EPOCH": "2025-11-11T05:32:58.437024",
    "MEAN_MOTION": 15.30257014,
    "ECCENTRICITY": 0.0001049,
    "INCLINATION": 53.1595,
    "RA_OF_ASC_NODE": 24.415,
    "ARG_OF_PERICENTER": 94.8534,
    "MEAN_ANOMALY": 265.2587,
    "EPHEMERIS_TYPE": 0,
    "CLASSIFICATION_TYPE": "U",
    "NORAD_CAT_ID": 62308,
    "ELEMENT_SET_NO": 999,
    "REV_AT_EPOCH": 5124,
    "BSTAR": 0.0015577,
    "MEAN_MOTION_DOT": 0.00046145,
    "MEAN_MOTION_DDOT": 0.0,
    "TLE_LINE1": "1 62308U 24239H   25315.23123191  .00046145  00000+0  15577-2 0  9993",
    "TLE_LINE2": "2 62308  53.1595  24.4150 0001049  94.8534 265.2587 15.30257014 51247",
    "COMMENT": "Grouped by shell and plane from TLE"
  },
  {
    "OBJECT_NAME": "STARLINK-32696",
    "OBJECT_ID": "24239K",
    "EPOCH": "2025-11-11T03:54:21.759840",
    "MEAN_MOTION": 15.3023875,
    "ECCENTRICITY": 0.0001416,
    "INCLINATION": 53.1589,
    "RA_OF_ASC_NODE": 24.7026,
    "ARG_OF_PERICENTER": 104.3526,
    "MEAN_ANOMALY": 255.7632,
    "EPHEMERIS_TYPE": 0,
    "CLASSIFICATION_TYPE": "U",
    "NORAD_CAT_ID": 62310,
    "ELEMENT_SET_NO": 999,
    "REV_AT_EPOCH": 5123,
    "BSTAR": 0.001434,
    "MEAN_MOTION_DOT": 0.00042405,
    "MEAN_MOTION_DDOT": 0.0,
    "TLE_LINE1": "1 62310U 24239K   25315.16275185  .00042405  00000+0  14340-2 0  9991",
    "TLE_LINE2": "2 62310  53.1589  24.7026 0001416 104.3526 255.7632 15.30238750 51234",
    "COMMENT": "Grouped by shell and plane from TLE"
  },
  {
    "OBJECT_NAME": "STARLINK-32698",
    "OBJECT_ID": "24239M",
    "EPOCH": "2025-11-11T05:37:32.045952",
    "MEAN_MOTION": 15.30231249,
    "ECCENTRICITY": 0.0001141,
    "INCLINATION": 53.1601,
    "RA_OF_ASC_NODE": 24.4357,
    "ARG_OF_PERICENTER": 83.2793,
    "MEAN_ANOMALY": 276.8338,
    "EPHEMERIS_TYPE": 0,
    "CLASSIFICATION_TYPE": "U",
    "NORAD_CAT_ID": 62312,
    "ELEMENT_SET_NO": 999,
    "REV_AT_EPOCH": 5124,
    "BSTAR": 0.0013463,
    "MEAN_MOTION_DOT": 0.00039768,
    "MEAN_MOTION_DDOT": 0.0,
    "TLE_LINE1": "1 62312U 24239M   25315.23439868  .00039768  00000+0  13463-2 0  9994",
    "TLE_LINE2": "2 62312  53.1601  24.4357 0001141  83.2793 276.8338 15.30231249 51245",
    "COMMENT": "Grouped by shell and plane from TLE"
  },
  {
    "OBJECT_NAME": "STARLINK-32651",
    "OBJECT_ID": "24239P",
    "EPOCH": "2025-11-10T13:06:51.645312",
    "MEAN_MOTION": 15.30218774,
    "ECCENTRICITY": 0.000136,
    "INCLINATION": 53.1602,
    "RA_OF_ASC_NODE": 27.2478,
    "ARG_OF_PERICENTER": 79.0191,
    "MEAN_ANOMALY": 281.0962,
    "EPHEMERIS_TYPE": 0,
    "CLASSIFICATION_TYPE": "U",
    "NORAD_CAT_ID": 62314,
    "ELEMENT_SET_NO": 999,
    "REV_AT_EPOCH": 5114,
    "BSTAR": 0.0013191,
    "MEAN_MOTION_DOT": 0.00038937,
    "MEAN_MOTION_DDOT": 0.0,
    "TLE_LINE1": "1 62314U 24239P   25314.54643108  .00038937  00000+0  13191-2 0  9998",
    "TLE_LINE2": "2 62314  53.1602  27.2478 0001360  79.0191 281.0962 15.30218774 51149",
    "COMMENT": "Grouped by shell and plane from TLE"
  },
  {
    "OBJECT_NAME": "STARLINK-32627",
    "OBJECT_ID": "24239Q",
    "EPOCH": "2025-11-11T05:34:28.811424",
    "MEAN_MOTION": 15.30252037,
    "ECCENTRICITY": 8.48e-05,
    "INCLINATION": 53.1596,
    "RA_OF_ASC_NODE": 24.3763,
    "ARG_OF_PERICENTER": 102.649,
    "MEAN_ANOMALY": 257.4606,
    "EPHEMERIS_TYPE": 0,
    "CLASSIFICATION_TYPE": "U",
    "NORAD_CAT_ID": 62315,
    "ELEMENT_SET_NO": 999,
    "REV_AT_EPOCH": 5124,
    "BSTAR": 0.0023276,
    "MEAN_MOTION_DOT": 0.00069334,
    "MEAN_MOTION_DDOT": 0.0,
    "TLE_LINE1": "1 62315U 24239Q   25315.23227791  .00069334  00000+0  23276-2 0  9992",
    "TLE_LINE2": "2 62315  53.1596  24.3763 0000848 102.6490 257.4606 15.30252037 51245",
    "COMMENT": "Grouped by shell and plane from TLE"
  },
  {
    "OBJECT_NAME": "STARLINK-32596",
    "OBJECT_ID": "24239R",
    "EPOCH": "2025-11-11T05:23:51.273600",
    "MEAN_MOTION": 15.30247415,
    "ECCENTRICITY": 0.0001712,
    "INCLINATION": 53.1589,
    "RA_OF_ASC_NODE": 24.3743,
    "ARG_OF_PERICENTER": 115.8038,
    "MEAN_ANOMALY": 244.314,
    "EPHEMERIS_TYPE": 0,
    "CLASSIFICATION_TYPE": "U",
    "NORAD_CAT_ID": 62316,
    "ELEMENT_SET_NO": 999,
    "REV_AT_EPOCH": 5124,
    "BSTAR": 0.001984,
    "MEAN_MOTION_DOT": 0.00058957,
    "MEAN_MOTION_DDOT": 0.0,
    "TLE_LINE1": "1 62316U 24239R   25315.22489900  .00058957  00000+0  19840-2 0  9995",
    "TLE_LINE2": "2 62316  53.1589  24.3743 0001712 115.8038 244.3140 15.30247415 51243",
    "COMMENT": "Grouped by shell and plane from TLE"
  },
  {
    "OBJECT_NAME": "STARLINK-32654",
    "OBJECT_ID": "24239X",
    "EPOCH": "2025-11-11T04:41:18.260736",
    "MEAN_MOTION": 15.30249101,
    "ECCENTRICITY": 0.0001359,
    "INCLINATION": 53.1605,
    "RA_OF_ASC_NODE": 24.187,
    "ARG_OF_PERICENTER": 81.7295,
    "MEAN_ANOMALY": 278.386,
    "EPHEMERIS_TYPE": 0,
    "CLASSIFICATION_TYPE": "U",
    "NORAD_CAT_ID": 62322,
    "ELEMENT_SET_NO": 999,
    "REV_AT_EPOCH": 5124,
    "BSTAR": 0.0019477000000000001,
    "MEAN_MOTION_DOT": 0.00057865,
    "MEAN_MOTION_DDOT": 0.0,
    "TLE_LINE1": "1 62322U 24239X   25315.19535024  .00057865  00000+0  19477-2 0  9990",
    "TLE_LINE2": "2 62322  53.1605  24.1870 0001359  81.7295 278.3860 15.30249101 51241",
    "COMMENT": "Grouped by shell and plane from TLE"
  }
]